NORAD_CAT_ID,OBJECT_NAME,OBJECT_TYPE,EPOCH,MEAN_MOTION,ECCENTRICITY,INCLINATION,RA_OF_ASC_NODE,ARG_OF_PERICENTER,MEAN_ANOMALY,BSTAR,MEAN_MOTION_DOT,MEAN_MOTION_DDOT,TLE_LINE0,TLE_LINE1,TLE_LINE2,SEMIMAJOR_AXIS,PERIOD,APOGEE,PERIGEE,DECAYED
51783.0,STARLINK-3628,PAYLOAD,2022-09-28 03:38:07,15.08833493,0.0001858,53.218,228.919,52.555,307.5611,0.00013315,1.831e-05,0.0,0 STARLINK-3628,1 51783U 22017R   22271.15147320  .00001831  00000-0  13315-3 0  9992,2 51783  53.2180 228.9190 0001858  52.5550 307.5611 15.08833493 34060,6917.9,95.438,541.0509999999998,538.48,0.0
51783.0,STARLINK-3628,PAYLOAD,2022-09-28 06:48:53,15.08834676,0.0001869,53.218,228.3241,52.5309,307.5853,0.00013846,1.916e-05,0.0,0 STARLINK-3628,1 51783U 22017R   22271.28395292  .00001916  00000-0  13846-3 0  9992,2 51783  53.2180 228.3241 0001869  52.5309 307.5853 15.08834676 32447,6917.897,95.438,541.055,538.469,0.0
51783.0,STARLINK-3628,PAYLOAD,2022-09-28 21:07:22,15.08832222,0.0001931,53.2182,225.6476,54.5668,305.5504,4.2039e-07,-2.81e-06,0.0,0 STARLINK-3628,1 51783U 22017R   22271.88012051 -.00000281  00000-0  42039-6 0  9991,2 51783  53.2182 225.6476 0001931  54.5668 305.5504 15.08832222 32535,6917.904,95.438,541.105,538.433,0.0
51783.0,STARLINK-3628,PAYLOAD,2022-09-29 03:28:55,15.08828068,0.0001835,53.2181,224.4584,54.1337,305.9825,-7.009300000000001e-05,-1.403e-05,0.0,0 STARLINK-3628,1 51783U 22017R   22272.14508673 -.00001403  00000-0 -70093-4 0  9998,2 51783  53.2181 224.4584 0001835  54.1337 305.9825 15.08828068 34213,6917.917,95.438,541.0509999999998,538.512,0.0
51783.0,STARLINK-3628,PAYLOAD,2022-09-29 06:39:41,15.08830231,0.0001797,53.2184,223.8646,47.0505,313.0637,-8.454e-05,-1.633e-05,0.0,0 STARLINK-3628,1 51783U 22017R   22272.27756674 -.00001633  00000-0 -84540-4 0  9995,2 51783  53.2184 223.8646 0001797  47.0505 313.0637 15.08830231 32598,6917.91,95.438,541.018,538.5319999999998,0.0
51783.0,STARLINK-3628,PAYLOAD,2022-09-30 03:19:43,15.08827444,0.0001764999999999,53.2183,219.9987,50.8644,309.2505,-5.3902e-05,-1.146e-05,0.0,0 STARLINK-3628,1 51783U 22017R   22273.13869439 -.00001146  00000-0 -53902-4 0  9992,2 51783  53.2183 219.9987 0001765  50.8644 309.2505 15.08827444 32720,6917.919,95.438,541.005,538.563,0.0
51783.0,STARLINK-3628,PAYLOAD,2022-09-30 20:48:56,15.08837522,0.0001683,53.2191,216.7292,51.7252,308.3891,0.00018225,2.613e-05,0.0,0 STARLINK-3628,1 51783U 22017R   22273.86732275  .00002613  00000-0  18225-3 0  9995,2 51783  53.2191 216.7292 0001683  51.7252 308.3891 15.08837522 32835,6917.888000000001,95.438,540.9169999999998,538.589,0.0
51783.0,STARLINK-3628,PAYLOAD,2022-10-01 03:10:28,15.08845843,0.0001699999999999,53.2192,215.5402,52.9612,307.1535,0.0002506999999999,3.705e-05,0.0,0 STARLINK-3628,1 51783U 22017R   22274.13227682  .00003705  00000-0  25070-3 0  9996,2 51783  53.2192 215.5402 0001700  52.9612 307.1535 15.08845843 34513,6917.863,95.437,540.904,538.5509999999998,0.0
51783.0,STARLINK-3628,PAYLOAD,2022-10-01 12:42:47,15.08844308,0.0001745,53.2184,213.7545,51.4606,308.6542,0.00022493,3.294e-05,0.0,0 STARLINK-3628,1 51783U 22017R   22274.52971895  .00003294  00000-0  22493-3 0  9990,2 51783  53.2184 213.7545 0001745  51.4606 308.6542 15.08844308 32931,6917.8669999999975,95.437,540.939,538.525,0.0
51783.0,STARLINK-3628,PAYLOAD,2022-10-02 04:36:40,15.088333300000002,0.0001718,53.2189,210.7837,51.0169,309.0976,5.8592e-05,6.44e-06,0.0,0 STARLINK-3628,1 51783U 22017R   22275.19213177  .00000644  00000-0  58592-4 0  9992,2 51783  53.2189 210.7837 0001718  51.0169 309.0976 15.08833330 34679,6917.901,95.438,540.9540000000002,538.577,0.0
51783.0,STARLINK-3628,PAYLOAD,2022-10-02 12:33:36,15.08829599,0.0001776999999999,53.2195,209.2937,52.3658,307.7495,-2.0137e-05,-6.08e-06,0.0,0 STARLINK-3628,1 51783U 22017R   22275.52333701 -.00000608  00000-0 -20137-4 0  9991,2 51783  53.2195 209.2937 0001777  52.3658 307.7495 15.08829599 33089,6917.9119999999975,95.438,541.006,538.548,0.0
51783.0,STARLINK-3628,PAYLOAD,2022-10-03 02:52:03,15.08853149,0.0001727,53.2193,206.6171,55.622,304.4936,-8.7014e-07,-3.02e-06,0.0,0 STARLINK-3628,1 51783U 22017R   22276.11948253 -.00000302  00000-0 -87014-6 0  9991,2 51783  53.2193 206.6171 0001727  55.6220 304.4936 15.08853149 34818,6917.84,95.437,540.9,538.51,0.0
51783.0,STARLINK-3628,PAYLOAD,2022-10-03 12:24:20,15.08867952,0.0001799,53.2195,204.833,55.9866,304.1297,9.8914e-05,1.288e-05,0.0,0 STARLINK-3628,1 51783U 22017R   22276.51690720  .00001288  00000-0  98914-4 0  9999,2 51783  53.2195 204.8330 0001799  55.9866 304.1297 15.08867952 34875,6917.795,95.436,540.904,538.415,0.0
51783.0,STARLINK-3628,PAYLOAD,2022-10-04 02:42:49,15.08857384,0.0001568,53.2176,202.1584,54.1088,306.005,0.00024104,3.552e-05,0.0,0 STARLINK-3628,1 51783U 22017R   22277.11306840  .00003552  00000-0  24104-3 0  9998,2 51783  53.2176 202.1584 0001568  54.1088 306.0050 15.08857384 34963,6917.8269999999975,95.436,540.7769999999998,538.6080000000002,0.0
51783.0,STARLINK-3628,PAYLOAD,2022-10-04 12:15:07,15.08854348,0.0001701,53.2178,200.373,57.6447,302.471,0.00027405,4.078e-05,0.0,0 STARLINK-3628,1 51783U 22017R   22277.51050875  .00004078  00000-0  27405-3 0  9997,2 51783  53.2178 200.3730 0001701  57.6447 302.4710 15.08854348 35022,6917.837,95.437,540.878,538.525,0.0
51783.0,STARLINK-3628,PAYLOAD,2022-10-05 04:09:00,15.08831444,0.000169,53.2189,197.3997,53.9123,306.2026,3.5674e-05,2.8e-06,0.0,0 STARLINK-3628,1 51783U 22017R   22278.17292187  .00000280  00000-0  35674-4 0  9993,2 51783  53.2189 197.3997 0001690  53.9123 306.2026 15.08831444 35126,6917.906999999997,95.438,540.941,538.602,0.0
51783.0,STARLINK-3628,PAYLOAD,2022-10-05 12:05:55,15.08839257,0.0001758,53.2189,195.9129,55.082,305.0337,-8.9425e-05,-1.711e-05,0.0,0 STARLINK-3628,1 51783U 22017R   22278.50412037 -.00001711  00000-0 -89425-4 0  9993,2 51783  53.2189 195.9129 0001758  55.0820 305.0337 15.08839257 33534,6917.8830000000025,95.438,540.964,538.531,0.0
51783.0,STARLINK-3628,PAYLOAD,2022-10-05 18:27:28,15.08852659,0.0001813,53.2191,194.7237,54.3263,305.7898,-0.00030211,-5.095e-05,0.0,0 STARLINK-3628,1 51783U 22017R   22278.76907791 -.00005095  00000-0 -30211-3 0  9994,2 51783  53.2191 194.7237 0001813  54.3263 305.7898 15.08852659 33573,6917.842,95.437,540.961,538.452,0.0
51783.0,STARLINK-3628,PAYLOAD,2022-10-06 03:59:47,15.08836695,0.0001797,53.2186,192.9392,53.9304,306.1855,-7.0727e-05,-1.413e-05,0.0,0 STARLINK-3628,1 51783U 22017R   22279.16652171 -.00001413  00000-0 -70727-4 0  9995,2 51783  53.2186 192.9392 0001797  53.9304 306.1855 15.08836695 33638,6917.89,95.438,540.999,538.512,0.0
51783.0,STARLINK-3628,PAYLOAD,2022-10-07 00:39:48,15.08825429,0.0001371,53.2185,189.0737,65.605,294.5085,2.1268e-05,5e-07,0.0,0 STARLINK-3628,1 51783U 22017R   22280.02764309  .00000050  00000-0  21268-4 0  9999,2 51783  53.2185 189.0737 0001371  65.6050 294.5085 15.08825429 35408,6917.925,95.438,540.738,538.841,0.0
51783.0,STARLINK-3628,PAYLOAD,2022-10-07 21:19:48,15.08838223,0.0001559,53.219,185.2099,57.4381,302.6762,0.00016443,2.33e-05,0.0,0 STARLINK-3628,1 51783U 22017R   22280.88875278  .00002330  00000-0  16443-3 0  9992,2 51783  53.2190 185.2099 0001559  57.4381 302.6762 15.08838223 33897,6917.886,95.438,540.8290000000002,538.672,0.0
51783.0,STARLINK-3628,PAYLOAD,2022-10-08 03:41:21,15.08828697,0.0002046999999999,53.218,184.0161,41.0187,319.0959,2.1691e-05,5.7e-07,0.0,0 STARLINK-3628,1 51783U 22017R   22281.15372547  .00000057  00000-0  21691-4 0  9990,2 51783  53.2180 184.0161 0002047  41.0187 319.0959 15.08828697 35570,6917.915,95.438,541.196,538.364,0.0
51783.0,STARLINK-3628,PAYLOAD,2022-10-09 09:53:41,15.08834468,0.0001592,53.2191,178.3701,64.4365,295.6791,0.0001039,1.366e-05,0.0,0 STARLINK-3628,1 51783U 22017R   22282.41228476  .00001366  00000-0  10390-3 0  9998,2 51783  53.2191 178.3701 0001592  64.4365 295.6791 15.08834468 34125,6917.897,95.438,540.864,538.661,0.0
51783.0,STARLINK-3628,PAYLOAD,2022-10-09 21:01:22,15.08844043,0.0001759,53.2185,176.2883,54.6336,305.4821,0.00012401,1.686e-05,0.0,0 STARLINK-3628,1 51783U 22017R   22282.87595556  .00001686  00000-0  12401-3 0  9994,2 51783  53.2185 176.2883 0001759  54.6336 305.4821 15.08844043 34191,6917.868,95.437,540.95,538.516,0.0
51783.0,STARLINK-3628,PAYLOAD,2022-10-10 01:47:31,15.08847799,0.0001706999999999,53.2184,175.3965,57.1556,302.9601,0.00012109,1.64e-05,0.0,0 STARLINK-3628,1 51783U 22017R   22283.07467367  .00001640  00000-0  12109-3 0  9990,2 51783  53.2184 175.3965 0001707  57.1556 302.9601 15.08847799 35860,6917.857,95.437,540.9019999999998,538.5409999999998,0.0
51783.0,STARLINK-3628,PAYLOAD,2022-10-10 19:16:47,15.08838467,0.0001785,53.218,172.12400000000005,52.5422,307.5732,9.8429e-05,1.279e-05,0.0,0 STARLINK-3628,1 51783U 22017R   22283.80332200  .00001279  00000-0  98429-4 0  9996,2 51783  53.2180 172.1240 0001785  52.5422 307.5732 15.08838467 35974,6917.885,95.438,540.985,538.515,0.0
51783.0,STARLINK-3628,PAYLOAD,2022-10-10 20:52:10,15.08832434,0.0001723,53.2183,171.8279,55.3312,304.7842,5.1229e-06,-2.07e-06,0.0,0 STARLINK-3628,1 51783U 22017R   22283.86956784 -.00000207  00000-0  51229-5 0  9990,2 51783  53.2183 171.8279 0001723  55.3312 304.7842 15.08832434 34345,6917.904,95.438,540.96,538.577,0.0
51783.0,STARLINK-3628,PAYLOAD,2022-10-11 01:38:19,15.08835118,0.0001874,53.2182,170.9355,52.2935,307.8227,2.7143e-05,1.44e-06,0.0,0 STARLINK-3628,1 51783U 22017R   22284.06828678  .00000144  00000-0  27143-4 0  9999,2 51783  53.2182 170.9355 0001874  52.2935 307.8227 15.08835118 36012,6917.895,95.438,541.057,538.464,0.0
51783.0,STARLINK-3628,PAYLOAD,2022-10-11 19:07:34,15.08839147,0.0001749,53.218,167.6646,55.5264,304.5893,-2.8974e-05,-7.49e-06,0.0,0 STARLINK-3628,1 51783U 22017R   22284.79692596 -.00000749  00000-0 -28974-4 0  9993,2 51783  53.2180 167.6646 0001749  55.5264 304.5893 15.08839147 34486,6917.8830000000025,95.438,540.9580000000002,538.538,0.0
